STARLINK-11143 [DTC]    
1 59953U 24107J   25208.46914578 -.00002728  00000+0 -17665-4 0  9995
2 59953  53.1582 281.4370 0000670  80.2459 279.8635 15.69722371 66772
STARLINK-11133 [DTC]    
1 59954U 24107K   25208.46424185  .00001564  00000+0  17761-4 0  9998
2 59954  53.1587 281.4041 0001119  60.3732 299.7397 15.69712210 66783
STARLINK-11144 [DTC]    
1 59955U 24107L   25209.22337771 -.00001005  00000+0 -34402-5 0  9992
2 59955  53.1592 277.6096 0001238  82.8843 277.2316 15.69704609 66955
STARLINK-11134 [DTC]    
1 59956U 24107M   25209.21846904 -.00001574  00000+0 -81344-5 0  9993
2 59956  53.1588 277.5724 0001156  80.3024 279.8124 15.69708027 66572
STARLINK-11142 [DTC]    
1 59957U 24107N   25209.21356290 -.00001000  00000+0 -34016-5 0  9996
2 59957  53.1579 277.5389 0000647  82.9042 277.2049 15.69708220 66902
STARLINK-31995          
1 59958U 24107P   25208.78777324  .00000157  00000+0  17422-4 0  9994
2 59958  53.1610  30.1305 0001113  81.5093 278.6033 15.30188720 64169
STARLINK-31989          
1 59959U 24107Q   25208.91208012 -.00001618  00000+0 -42545-4 0  9992
2 59959  53.1620  29.4848 0001101  72.5298 287.5823 15.30186420 65384
STARLINK-31856          
1 59960U 24107R   25208.78460723  .00000731  00000+0  36804-4 0  9992
2 59960  53.1605  30.1103 0001167  71.7008 288.4119 15.30186382 65367
STARLINK-31993          
1 59961U 24107S   25208.92473043  .00000312  00000+0  22661-4 0  9999
2 59961  53.1617  29.5634 0001132  82.2144 277.8986 15.30197329 65325
STARLINK-31980          
1 59962U 24107T   25208.80149136 -.00000598  00000+0 -80708-5 0  9995
2 59962  53.1616  30.2134 0001130  89.4603 270.6527 15.30191298 65361
STARLINK-31991          
1 59963U 24107U   25208.79093791  .00000077  00000+0  14722-4 0  9991
2 59963  53.1620  30.1495 0001145  81.9020 278.2111 15.30191544 65369
STARLINK-31979          
1 59964U 24107V   25209.19021244  .00000374  00000+0  24755-4 0  9998
2 59964  53.1610  28.3719 0001087  77.8788 282.2334 15.30192768 65313
STARLINK-31978          
1 60016U 24111A   25208.84149860 -.00000481  00000+0 -41307-5 0  9993
2 60016  53.1613  40.3534 0001118  94.8231 265.2898 15.30185890 64506
STARLINK-31987          
1 60017U 24111B   25208.83516353 -.00000323  00000+0  12222-5 0  9996
2 60017  53.1608  40.3108 0001059  96.0547 264.0574 15.30188887 64569
STARLINK-31984          
1 60018U 24111C   25208.95840273  .00000451  00000+0  27350-4 0  9999
2 60018  53.1615  39.6576 0001068  85.8065 274.3058 15.30195648 64473
STARLINK-31986          
1 60019U 24111D   25208.81827641  .00003915  00000+0  14428-3 0  9998
2 60019  53.1587  40.2038 0001172  91.3378 268.7757 15.30187652 64613
STARLINK-31883          
1 60020U 24111E   25208.83832976 -.00000088  00000+0  91483-5 0  9996
2 60020  53.1607  40.3314 0001110  99.1366 260.9761 15.30189981 64550
