[{"OBJECT_NAME":"STARLINK-11143 [DTC]","OBJECT_ID":"2024-107J","EPOCH":"2025-07-27T11:15:34.195392","MEAN_MOTION":15.69722371,"ECCENTRICITY":6.7e-5,"INCLINATION":53.1582,"RA_OF_ASC_NODE":281.437,"ARG_OF_PERICENTER":80.2459,"MEAN_ANOMALY":279.8635,"EPHEMERIS_TYPE":0,"CLASSIFICATION_TYPE":"U","NORAD_CAT_ID":59953,"ELEMENT_SET_NO":999,"REV_AT_EPOCH":6677,"BSTAR":-1.7665e-5,"MEAN_MOTION_DOT":-2.728e-5,"MEAN_MOTION_DDOT":0},{"OBJECT_NAME":"STARLINK-11133 [DTC]","OBJECT_ID":"2024-107K","EPOCH":"2025-07-27T11:08:30.495840","MEAN_MOTION":15.6971221,"ECCENTRICITY":0.0001119,"INCLINATION":53.1587,"RA_OF_ASC_NODE":281.4041,"ARG_OF_PERICENTER":60.3732,"MEAN_ANOMALY":299.7397,"EPHEMERIS_TYPE":0,"CLASSIFICATION_TYPE":"U","NORAD_CAT_ID":59954,"ELEMENT_SET_NO":999,"REV_AT_EPOCH":6678,"BSTAR":1.7761e-5,"MEAN_MOTION_DOT":1.564e-5,"MEAN_MOTION_DDOT":0},{"OBJECT_NAME":"STARLINK-11144 [DTC]","OBJECT_ID":"2024-107L","EPOCH":"2025-07-28T05:21:39.834144","MEAN_MOTION":15.69704609,"ECCENTRICITY":0.0001238,"INCLINATION":53.1592,"RA_OF_ASC_NODE":277.6096,"ARG_OF_PERICENTER":82.8843,"MEAN_ANOMALY":277.2316,"EPHEMERIS_TYPE":0,"CLASSIFICATION_TYPE":"U","NORAD_CAT_ID":59955,"ELEMENT_SET_NO":999,"REV_AT_EPOCH":6695,"BSTAR":-3.4402e-6,"MEAN_MOTION_DOT":-1.005e-5,"MEAN_MOTION_DDOT":0},{"OBJECT_NAME":"STARLINK-11134 [DTC]","OBJECT_ID":"2024-107M","EPOCH":"2025-07-28T05:14:35.725056","MEAN_MOTION":15.69708027,"ECCENTRICITY":0.0001156,"INCLINATION":53.1588,"RA_OF_ASC_NODE":277.5724,"ARG_OF_PERICENTER":80.3024,"MEAN_ANOMALY":279.8124,"EPHEMERIS_TYPE":0,"CLASSIFICATION_TYPE":"U","NORAD_CAT_ID":59956,"ELEMENT_SET_NO":999,"REV_AT_EPOCH":6657,"BSTAR":-8.1344e-6,"MEAN_MOTION_DOT":-1.574e-5,"MEAN_MOTION_DDOT":0},{"OBJECT_NAME":"STARLINK-11142 [DTC]","OBJECT_ID":"2024-107N","EPOCH":"2025-07-28T05:07:31.834560","MEAN_MOTION":15.6970822,"ECCENTRICITY":6.47e-5,"INCLINATION":53.1579,"RA_OF_ASC_NODE":277.5389,"ARG_OF_PERICENTER":82.9042,"MEAN_ANOMALY":277.2049,"EPHEMERIS_TYPE":0,"CLASSIFICATION_TYPE":"U","NORAD_CAT_ID":59957,"ELEMENT_SET_NO":999,"REV_AT_EPOCH":6690,"BSTAR":-3.4016e-6,"MEAN_MOTION_DOT":-1.0e-5,"MEAN_MOTION_DDOT":0},{"OBJECT_NAME":"STARLINK-31995","OBJECT_ID":"2024-107P","EPOCH":"2025-07-27T18:54:23.607936","MEAN_MOTION":15.3018872,"ECCENTRICITY":0.0001113,"INCLINATION":53.161,"RA_OF_ASC_NODE":30.1305,"ARG_OF_PERICENTER":81.5093,"MEAN_ANOMALY":278.6033,"EPHEMERIS_TYPE":0,"CLASSIFICATION_TYPE":"U","NORAD_CAT_ID":59958,"ELEMENT_SET_NO":999,"REV_AT_EPOCH":6416,"BSTAR":1.7422e-5,"MEAN_MOTION_DOT":1.57e-6,"MEAN_MOTION_DDOT":0},{"OBJECT_NAME":"STARLINK-31989","OBJECT_ID":"2024-107Q","EPOCH":"2025-07-27T21:53:23.722368","MEAN_MOTION":15.3018642,"ECCENTRICITY":0.0001101,"INCLINATION":53.162,"RA_OF_ASC_NODE":29.4848,"ARG_OF_PERICENTER":72.5298,"MEAN_ANOMALY":287.5823,"EPHEMERIS_TYPE":0,"CLASSIFICATION_TYPE":"U","NORAD_CAT_ID":59959,"ELEMENT_SET_NO":999,"REV_AT_EPOCH":6538,"BSTAR":-4.2545e-5,"MEAN_MOTION_DOT":-1.618e-5,"MEAN_MOTION_DDOT":0},{"OBJECT_NAME":"STARLINK-31856","OBJECT_ID":"2024-107R","EPOCH":"2025-07-27T18:49:50.064672","MEAN_MOTION":15.30186382,"ECCENTRICITY":0.0001167,"INCLINATION":53.1605,"RA_OF_ASC_NODE":30.1103,"ARG_OF_PERICENTER":71.7008,"MEAN_ANOMALY":288.4119,"EPHEMERIS_TYPE":0,"CLASSIFICATION_TYPE":"U","NORAD_CAT_ID":59960,"ELEMENT_SET_NO":999,"REV_AT_EPOCH":6536,"BSTAR":3.6804e-5,"MEAN_MOTION_DOT":7.31e-6,"MEAN_MOTION_DDOT":0},{"OBJECT_NAME":"STARLINK-31993","OBJECT_ID":"2024-107S","EPOCH":"2025-07-27T22:11:36.709152","MEAN_MOTION":15.30197329,"ECCENTRICITY":0.0001132,"INCLINATION":53.1617,"RA_OF_ASC_NODE":29.5634,"ARG_OF_PERICENTER":82.2144,"MEAN_ANOMALY":277.8986,"EPHEMERIS_TYPE":0,"CLASSIFICATION_TYPE":"U","NORAD_CAT_ID":59961,"ELEMENT_SET_NO":999,"REV_AT_EPOCH":6532,"BSTAR":2.2661e-5,"MEAN_MOTION_DOT":3.12e-6,"MEAN_MOTION_DDOT":0},{"OBJECT_NAME":"STARLINK-31980","OBJECT_ID":"2024-107T","EPOCH":"2025-07-27T19:14:08.853504","MEAN_MOTION":15.30191298,"ECCENTRICITY":0.000113,"INCLINATION":53.1616,"RA_OF_ASC_NODE":30.2134,"ARG_OF_PERICENTER":89.4603,"MEAN_ANOMALY":270.6527,"EPHEMERIS_TYPE":0,"CLASSIFICATION_TYPE":"U","NORAD_CAT_ID":59962,"ELEMENT_SET_NO":999,"REV_AT_EPOCH":6536,"BSTAR":-8.0708e-6,"MEAN_MOTION_DOT":-5.98e-6,"MEAN_MOTION_DDOT":0},{"OBJECT_NAME":"STARLINK-31991","OBJECT_ID":"2024-107U","EPOCH":"2025-07-27T18:58:57.035424","MEAN_MOTION":15.30191544,"ECCENTRICITY":0.0001145,"INCLINATION":53.162,"RA_OF_ASC_NODE":30.1495,"ARG_OF_PERICENTER":81.902,"MEAN_ANOMALY":278.2111,"EPHEMERIS_TYPE":0,"CLASSIFICATION_TYPE":"U","NORAD_CAT_ID":59963,"ELEMENT_SET_NO":999,"REV_AT_EPOCH":6536,"BSTAR":1.4722e-5,"MEAN_MOTION_DOT":7.7e-7,"MEAN_MOTION_DDOT":0},{"OBJECT_NAME":"STARLINK-31979","OBJECT_ID":"2024-107V","EPOCH":"2025-07-28T04:33:54.354816","MEAN_MOTION":15.30192768,"ECCENTRICITY":0.0001087,"INCLINATION":53.161,"RA_OF_ASC_NODE":28.3719,"ARG_OF_PERICENTER":77.8788,"MEAN_ANOMALY":282.2334,"EPHEMERIS_TYPE":0,"CLASSIFICATION_TYPE":"U","NORAD_CAT_ID":59964,"ELEMENT_SET_NO":999,"REV_AT_EPOCH":6531,"BSTAR":2.4755e-5,"MEAN_MOTION_DOT":3.74e-6,"MEAN_MOTION_DDOT":0},{"OBJECT_NAME":"STARLINK-31978","OBJECT_ID":"2024-111A","EPOCH":"2025-07-27T20:11:45.479040","MEAN_MOTION":15.3018589,"ECCENTRICITY":0.0001118,"INCLINATION":53.1613,"RA_OF_ASC_NODE":40.3534,"ARG_OF_PERICENTER":94.8231,"MEAN_ANOMALY":265.2898,"EPHEMERIS_TYPE":0,"CLASSIFICATION_TYPE":"U","NORAD_CAT_ID":60016,"ELEMENT_SET_NO":999,"REV_AT_EPOCH":6450,"BSTAR":-4.1307e-6,"MEAN_MOTION_DOT":-4.81e-6,"MEAN_MOTION_DDOT":0},{"OBJECT_NAME":"STARLINK-31987","OBJECT_ID":"2024-111B","EPOCH":"2025-07-27T20:02:38.128992","MEAN_MOTION":15.30188887,"ECCENTRICITY":0.0001059,"INCLINATION":53.1608,"RA_OF_ASC_NODE":40.3108,"ARG_OF_PERICENTER":96.0547,"MEAN_ANOMALY":264.0574,"EPHEMERIS_TYPE":0,"CLASSIFICATION_TYPE":"U","NORAD_CAT_ID":60017,"ELEMENT_SET_NO":999,"REV_AT_EPOCH":6456,"BSTAR":1.2222e-6,"MEAN_MOTION_DOT":-3.23e-6,"MEAN_MOTION_DDOT":0},{"OBJECT_NAME":"STARLINK-31984","OBJECT_ID":"2024-111C","EPOCH":"2025-07-27T23:00:05.995872","MEAN_MOTION":15.30195648,"ECCENTRICITY":0.0001068,"INCLINATION":53.1615,"RA_OF_ASC_NODE":39.6576,"ARG_OF_PERICENTER":85.8065,"MEAN_ANOMALY":274.3058,"EPHEMERIS_TYPE":0,"CLASSIFICATION_TYPE":"U","NORAD_CAT_ID":60018,"ELEMENT_SET_NO":999,"REV_AT_EPOCH":6447,"BSTAR":2.735e-5,"MEAN_MOTION_DOT":4.51e-6,"MEAN_MOTION_DDOT":0},{"OBJECT_NAME":"STARLINK-31986","OBJECT_ID":"2024-111D","EPOCH":"2025-07-27T19:38:19.081824","MEAN_MOTION":15.30187652,"ECCENTRICITY":0.0001172,"INCLINATION":53.1587,"RA_OF_ASC_NODE":40.2038,"ARG_OF_PERICENTER":91.3378,"MEAN_ANOMALY":268.7757,"EPHEMERIS_TYPE":0,"CLASSIFICATION_TYPE":"U","NORAD_CAT_ID":60019,"ELEMENT_SET_NO":999,"REV_AT_EPOCH":6461,"BSTAR":0.00014428,"MEAN_MOTION_DOT":3.915e-5,"MEAN_MOTION_DDOT":0},{"OBJECT_NAME":"STARLINK-31883","OBJECT_ID":"2024-111E","EPOCH":"2025-07-27T20:07:11.691264","MEAN_MOTION":15.30189981,"ECCENTRICITY":0.000111,"INCLINATION":53.1607,"RA_OF_ASC_NODE":40.3314,"ARG_OF_PERICENTER":99.1366,"MEAN_ANOMALY":260.9761,"EPHEMERIS_TYPE":0,"CLASSIFICATION_TYPE":"U","NORAD_CAT_ID":60020,"ELEMENT_SET_NO":999,"REV_AT_EPOCH":6455,"BSTAR":9.1483e-6,"MEAN_MOTION_DOT":-8.8e-7,"MEAN_MOTION_DDOT":0}]
